[
    {
        "Altitude(m)": 610405.3489431947,
        "Argument of Periapsis(deg)": 0.0,
        "Eccentricity": 0.0,
        "Inclination(deg)": 60.0,
        "Latitude(deg)": 52.11134305897188,
        "Longitude(deg)": 82.47739418954795,
        "Mean Anomaly(deg)": 114.5455,
        "RAAN(deg)": 50.0,
        "Satellite Name": "Test1 227",
        "Satellite Number": 227,
        "Semi-Major Axis(m)": 6980739.136638005,
        "Time(s)": 0
    },
    {
        "Altitude(m)": 610321.9220909964,
        "Argument of Periapsis(deg)": 0.00010418945913296404,
        "Eccentricity": 0.0,
        "Inclination(deg)": 60.0,
        "Latitude(deg)": 51.746058283251756,
        "Longitude(deg)": 83.24628953928277,
        "Mean Anomaly(deg)": 115.16560614546184,
        "RAAN(deg)": 49.99957995086026,
        "Satellite Name": "Test1 227",
        "Satellite Number": 227,
        "Semi-Major Axis(m)": 6980739.136638005,
        "Time(s)": 10
    }
]